COMMENT,ORIGINATOR,NORAD_CAT_ID,OBJECT_NAME,OBJECT_TYPE,CLASSIFICATION_TYPE,INTLDES,EPOCH,EPOCH_MICROSECONDS,MEAN_MOTION,ECCENTRICITY,INCLINATION,RA_OF_ASC_NODE,ARG_OF_PERICENTER,MEAN_ANOMALY,EPHEMERIS_TYPE,ELEMENT_SET_NO,REV_AT_EPOCH,BSTAR,MEAN_MOTION_DOT,MEAN_MOTION_DDOT,FILE,TLE_LINE0,TLE_LINE1,TLE_LINE2,OBJECT_ID,OBJECT_NUMBER,SEMIMAJOR_AXIS,PERIOD,APOGEE,PERIGEE,DECAYED
"GENERATED VIA SPACETRACK.ORG API","18 SPCS","48886","SPACEBEE-102","PAYLOAD","U","21059H","2023-12-28 21:20:50","433504","15.55415978","0.00044","97.6081","147.2856","300.5898","59.4921","0","999","13935","0.0015501","0.00106699","0","4147928","0 SPACEBEE-102","1 48886U 21059H   23362.88947261  .00106699  00000-0  15501-2 0  9997","2 48886  97.6081 147.2856 0004400 300.5898  59.4921 15.55415978139352","2021-059H","48886","6779.081","92.580","403.928","397.963","0"
"GENERATED VIA SPACETRACK.ORG API","18 SPCS","48886","SPACEBEE-102","PAYLOAD","U","21059H","2023-12-28 22:53:28","795200","15.55435228","0.0004439","97.6081","147.3539","300.2399","59.8415","0","999","13936","0.0015783","0.00108747","0","4148107","0 SPACEBEE-102","1 48886U 21059H   23362.95380550  .00108747  00000-0  15783-2 0  9995","2 48886  97.6081 147.3539 0004439 300.2399  59.8415 15.55435228139369","2021-059H","48886","6779.025","92.579","403.899","397.881","0"
"GENERATED VIA SPACETRACK.ORG API","18 SPCS","48886","SPACEBEE-102","PAYLOAD","U","21059H","2023-12-29 08:09:18","237024","15.55512912","0.000436","97.6083","147.7644","299.3181","60.7637","0","999","13942","0.0015091","0.0010421","0","4148460","0 SPACEBEE-102","1 48886U 21059H   23363.33979441  .00104210  00000-0  15091-2 0  9994","2 48886  97.6083 147.7644 0004360 299.3181  60.7637 15.55512912139422","2021-059H","48886","6778.799","92.574","403.620","397.709","0"
"GENERATED VIA SPACETRACK.ORG API","18 SPCS","48886","SPACEBEE-102","PAYLOAD","U","21059H","2023-12-29 08:09:18","237024","15.55512912","0.000436","97.6083","147.7644","299.3181","60.7637","0","999","13942","0.0015091","0.0010421","0","4148680","0 SPACEBEE-102","1 48886U 21059H   23363.33979441  .00104210  00000-0  15091-2 0  9994","2 48886  97.6083 147.7644 0004360 299.3181  60.7637 15.55512912139422","2021-059H","48886","6778.799","92.574","403.620","397.709","0"
"GENERATED VIA SPACETRACK.ORG API","18 SPCS","48886","SPACEBEE-102","PAYLOAD","U","21059H","2023-12-29 22:02:59","18496","15.55633972","0.0004416","97.6088","148.3803","298.178","61.9027","0","999","13951","0.0014543","0.00100828","0","4148761","0 SPACEBEE-102","1 48886U 21059H   23363.91873864  .00100828  00000-0  14543-2 0  9992","2 48886  97.6088 148.3803 0004416 298.1780  61.9027 15.55633972139511","2021-059H","48886","6778.447","92.567","403.306","397.319","0"
"GENERATED VIA SPACETRACK.ORG API","18 SPCS","48886","SPACEBEE-102","PAYLOAD","U","21059H","2023-12-30 08:51:21","286368","15.55732984","0.0004408","97.6086","148.8591","296.6384","63.4418","0","999","13958","0.0014581","0.00101467","0","4149216","0 SPACEBEE-102","1 48886U 21059H   23364.36899637  .00101467  00000-0  14581-2 0  9990","2 48886  97.6086 148.8591 0004408 296.6384  63.4418 15.55732984139583","2021-059H","48886","6778.160","92.561","403.013","397.037","0"
"GENERATED VIA SPACETRACK.ORG API","18 SPCS","48886","SPACEBEE-102","PAYLOAD","U","21059H","2023-12-30 08:51:21","286368","15.55732984","0.0004408","97.6086","148.8591","296.6384","63.4418","0","999","13958","0.0014581","0.00101467","0","4149332","0 SPACEBEE-102","1 48886U 21059H   23364.36899637  .00101467  00000-0  14581-2 0  9990","2 48886  97.6086 148.8591 0004408 296.6384  63.4418 15.55732984139583","2021-059H","48886","6778.160","92.561","403.013","397.037","0"
"GENERATED VIA SPACETRACK.ORG API","18 SPCS","48886","SPACEBEE-102","PAYLOAD","U","21059H","2023-12-30 22:44:55","197312","15.55845341","0.0004437","97.6079","149.4768","297.2528","62.8274","0","999","13967","0.0013876","0.00096901","0","4149598","0 SPACEBEE-102","1 48886U 21059H   23364.94786108  .00096901  00000-0  13876-2 0  9994","2 48886  97.6079 149.4768 0004437 297.2528  62.8274 15.55845341139672","2021-059H","48886","6777.833","92.554","402.706","396.691","0"
"GENERATED VIA SPACETRACK.ORG API","18 SPCS","48886","SPACEBEE-102","PAYLOAD","U","21059H","2023-12-31 09:33:12","390048","15.55929436","0.0004397","97.6083","149.9555","294.8282","65.2514","0","999","13974","0.0012112","0.00084701","0","4150011","0 SPACEBEE-102","1 48886U 21059H   23365.39806007  .00084701  00000-0  12112-2 0  9992","2 48886  97.6083 149.9555 0004397 294.8282  65.2514 15.55929436139741","2021-059H","48886","6777.589","92.549","402.434","396.474","0"
"GENERATED VIA SPACETRACK.ORG API","18 SPCS","48886","SPACEBEE-102","PAYLOAD","U","21059H","2023-12-31 21:54:03","900096","15.56019812","0.0004427","97.6078","150.5036","293.8447","66.2343","0","999","13982","0.0012887","0.00090494","0","4150400","0 SPACEBEE-102","1 48886U 21059H   23365.91254514  .00090494  00000-0  12887-2 0  9995","2 48886  97.6078 150.5036 0004427 293.8447  66.2343 15.56019812139822","2021-059H","48886","6777.327","92.544","402.192","396.191","0"
"GENERATED VIA SPACETRACK.ORG API","18 SPCS","48886","SPACEBEE-102","PAYLOAD","U","21059H","2024-01-01 08:42:16","705440","15.56105245","0.0004396","97.608","150.9826","291.4765","68.602","0","999","13989","0.0012208","0.00085941","0","4150844","0 SPACEBEE-102","1 48886U 21059H   24001.36269335  .00085941  00000-0  12208-2 0  9997","2 48886  97.6080 150.9826 0004396 291.4765  68.6020 15.56105245139899","2021-059H","48886","6777.079","92.539","401.923","395.965","0"
"GENERATED VIA SPACETRACK.ORG API","18 SPCS","48886","SPACEBEE-102","PAYLOAD","U","21059H","2024-01-01 08:42:16","705440","15.56105245","0.0004396","97.608","150.9826","291.4765","68.602","0","999","13989","0.0012208","0.00085941","0","4150923","0 SPACEBEE-102","1 48886U 21059H   24001.36269335  .00085941  00000-0  12208-2 0  9997","2 48886  97.6080 150.9826 0004396 291.4765  68.6020 15.56105245139899","2021-059H","48886","6777.079","92.539","401.923","395.965","0"
"GENERATED VIA SPACETRACK.ORG API","18 SPCS","48886","SPACEBEE-102","PAYLOAD","U","21059H","2024-01-01 22:35:38","626656","15.56221238","0.0004551","97.6081","151.5995","291.8012","68.2758","0","999","13998","0.0014881","0.00105489","0","4151354","0 SPACEBEE-102","1 48886U 21059H   24001.94141929  .00105489  00000-0  14881-2 0  9998","2 48886  97.6081 151.5995 0004551 291.8012  68.2758 15.56221238139981","2021-059H","48886","6776.742","92.532","401.691","395.523","0"
"GENERATED VIA SPACETRACK.ORG API","18 SPCS","48886","SPACEBEE-102","PAYLOAD","U","21059H","2024-01-01 22:35:38","626656","15.56221238","0.0004551","97.6081","151.5995","291.8012","68.2758","0","999","13998","0.0014881","0.00105489","0","4151465","0 SPACEBEE-102","1 48886U 21059H   24001.94141929  .00105489  00000-0  14881-2 0  9998","2 48886  97.6081 151.5995 0004551 291.8012  68.2758 15.56221238139981","2021-059H","48886","6776.742","92.532","401.691","395.523","0"
"GENERATED VIA SPACETRACK.ORG API","18 SPCS","48886","SPACEBEE-102","PAYLOAD","U","21059H","2024-01-02 09:23:46","184064","15.56325746","0.0004531","97.6082","152.0787","290.0131","70.0635","0","999","14005","0.0015386","0.00109548","0","4151729","0 SPACEBEE-102","1 48886U 21059H   24002.39150676  .00109548  00000-0  15386-2 0  9998","2 48886  97.6082 152.0787 0004531 290.0131  70.0635 15.56325746140052","2021-059H","48886","6776.439","92.526","401.374","395.233","0"
"GENERATED VIA SPACETRACK.ORG API","18 SPCS","48886","SPACEBEE-102","PAYLOAD","U","21059H","2024-01-02 09:23:46","184064","15.56325746","0.0004531","97.6082","152.0787","290.0131","70.0635","0","999","14005","0.0015386","0.00109548","0","4151898","0 SPACEBEE-102","1 48886U 21059H   24002.39150676  .00109548  00000-0  15386-2 0  9998","2 48886  97.6082 152.0787 0004531 290.0131  70.0635 15.56325746140052","2021-059H","48886","6776.439","92.526","401.374","395.233","0"
"GENERATED VIA SPACETRACK.ORG API","18 SPCS","48886","SPACEBEE-102","PAYLOAD","U","21059H","2024-01-02 21:44:26","256480","15.5642586","0.0004576","97.608","152.6272","289.5155","70.5605","0","999","14013","0.0013794","0.0009843","0","4151993","0 SPACEBEE-102","1 48886U 21059H   24002.90585945  .00098430  00000-0  13794-2 0  9994","2 48886  97.6080 152.6272 0004576 289.5155  70.5605 15.56425860140132","2021-059H","48886","6776.148","92.520","401.114","394.912","0"
"GENERATED VIA SPACETRACK.ORG API","18 SPCS","48886","SPACEBEE-102","PAYLOAD","U","21059H","2024-01-02 23:17:01","39488","15.56439812","0.000462","97.608","152.6956","289.4362","70.6392","0","999","14014","0.0013824","0.00098699","0","4152172","0 SPACEBEE-102","1 48886U 21059H   24002.97015092  .00098699  00000-0  13824-2 0  9993","2 48886  97.6080 152.6956 0004620 289.4362  70.6392 15.56439812140147","2021-059H","48886","6776.108","92.519","401.103","394.842","0"
"GENERATED VIA SPACETRACK.ORG API","18 SPCS","48886","SPACEBEE-102","PAYLOAD","U","21059H","2024-01-03 08:32:28","930560","15.56513664","0.0004536","97.6081","153.1064","287.8454","72.2305","0","999","14020","0.0012965","0.00092742","0","4152560","0 SPACEBEE-102","1 48886U 21059H   24003.35589040  .00092742  00000-0  12965-2 0  9993","2 48886  97.6081 153.1064 0004536 287.8454  72.2305 15.56513664140201","2021-059H","48886","6775.893","92.514","400.832","394.685","0"
"GENERATED VIA SPACETRACK.ORG API","18 SPCS","48886","SPACEBEE-102","PAYLOAD","U","21059H","2024-01-03 22:25:37","857216","15.56622235","0.0004497","97.6076","153.7233","287.3675","72.7088","0","999","14029","0.0013917","0.0010005","0","4152812","0 SPACEBEE-102","1 48886U 21059H   24003.93446594  .00100050  00000-0  13917-2 0  9993","2 48886  97.6076 153.7233 0004497 287.3675  72.7088 15.56622235140292","2021-059H","48886","6775.578","92.508","400.490","394.396","0"
